{
    "links": {
        "self": "http://www.neowsapp.com/rest/v1/neo/3838841?api_key=iIulBulltgU6a56xZRHN4H3l9WmuAYTsLGpBGhQ2"
    },
    "id": "3838841",
    "neo_reference_id": "3838841",
    "name": "(2019 DS)",
    "designation": "2019 DS",
    "nasa_jpl_url": "http://ssd.jpl.nasa.gov/sbdb.cgi?sstr=3838841",
    "absolute_magnitude_h": 24.9,
    "estimated_diameter": {
        "kilometers": {
            "estimated_diameter_min": 0.0278326768,
            "estimated_diameter_max": 0.0622357573
        },
        "meters": {
            "estimated_diameter_min": 27.8326768072,
            "estimated_diameter_max": 62.2357573367
        },
        "miles": {
            "estimated_diameter_min": 0.0172944182,
            "estimated_diameter_max": 0.0386714948
        },
        "feet": {
            "estimated_diameter_min": 91.3145593761,
            "estimated_diameter_max": 204.1855621004
        }
    },
    "is_potentially_hazardous_asteroid": false,
    "close_approach_data": [
        {
            "close_approach_date": "2019-03-21",
            "close_approach_date_full": "2019-Mar-21 07:58",
            "epoch_date_close_approach": 1553155080000,
            "relative_velocity": {
                "kilometers_per_second": "8.8912790998",
                "kilometers_per_hour": "32008.6047594099",
                "miles_per_hour": "19888.9022184233"
            },
            "miss_distance": {
                "astronomical": "0.0444140261",
                "lunar": "17.2770561529",
                "kilometers": "6644243.702684407",
                "miles": "4128541.5938305366"
            },
            "orbiting_body": "Earth"
        }
    ],
    "orbital_data": {
        "orbit_id": "6",
        "orbit_determination_date": "2019-03-17 07:27:34",
        "first_observation_date": "2019-02-26",
        "last_observation_date": "2019-03-17",
        "data_arc_in_days": 19,
        "observations_used": 39,
        "orbit_uncertainty": "7",
        "minimum_orbit_intersection": ".043248",
        "jupiter_tisserand_invariant": "4.156",
        "epoch_osculation": "2459000.5",
        "eccentricity": ".427879349287517",
        "semi_major_axis": "1.655373911161942",
        "inclination": "6.519856293575598",
        "ascending_node_longitude": "158.7283956168492",
        "orbital_period": "777.9337017588838",
        "perihelion_distance": ".9470735992264381",
        "perihelion_argument": "58.88724854315274",
        "aphelion_distance": "2.363674223097445",
        "perihelion_time": "2459372.700068654451",
        "mean_anomaly": "187.7590694262886",
        "mean_motion": ".4627643707761359",
        "equinox": "J2000",
        "orbit_class": {
            "orbit_class_type": "APO",
            "orbit_class_description": "Near-Earth asteroid orbits which cross the Earth’s orbit similar to that of 1862 Apollo",
            "orbit_class_range": "a (semi-major axis) > 1.0 AU; q (perihelion) < 1.017 AU"
        }
    },
    "is_sentry_object": false
}